NORAD_CAT_ID,OBJECT_NAME,OBJECT_TYPE,EPOCH,MEAN_MOTION,ECCENTRICITY,INCLINATION,RA_OF_ASC_NODE,ARG_OF_PERICENTER,MEAN_ANOMALY,BSTAR,MEAN_MOTION_DOT,MEAN_MOTION_DDOT,TLE_LINE0,TLE_LINE1,TLE_LINE2,SEMIMAJOR_AXIS,PERIOD,APOGEE,PERIGEE,DECAYED
52302.0,STARLINK-3564,PAYLOAD,2023-10-18 14:28:52,15.08844704,0.0001736,53.2188,48.5583,94.9141,265.205,5.8357e-05,6.41e-06,0.0,0 STARLINK-3564,1 52302U 22041AT  23291.60337967  .00000641  00000-0  58357-4 0  9992,2 52302  53.2188  48.5583 0001736  94.9141 265.2050 15.08844704 84046,6917.866,95.437,540.932,538.53,0.0
52302.0,STARLINK-3564,PAYLOAD,2023-10-19 11:08:52,15.08847089,0.0001588,53.2195,44.6916,99.8128,260.3044,8.3707e-05,1.045e-05,0.0,0 STARLINK-3564,1 52302U 22041AT  23292.46449367  .00001045  00000-0  83707-4 0  9991,2 52302  53.2195  44.6916 0001588  99.8128 260.3044 15.08847089 82962,6917.859,95.437,540.822,538.625,0.0
52302.0,STARLINK-3564,PAYLOAD,2023-10-20 12:35:03,15.08832235,0.0001702,53.2198,39.9338,104.378,255.7402,7.6449e-07,-2.76e-06,0.0,0 STARLINK-3564,1 52302U 22041AT  23293.52434612 -.00000276  00000-0  76449-6 0  9999,2 52302  53.2198  39.9338 0001702 104.3780 255.7402 15.08832235 84330,6917.904,95.438,540.947,538.592,0.0
52302.0,STARLINK-3564,PAYLOAD,2023-10-21 12:25:49,15.08841129,0.0001704,53.2191,35.4696,114.6651,245.4518,0.00012041,1.629e-05,0.0,0 STARLINK-3564,1 52302U 22041AT  23294.51793890  .00001629  00000-0  12041-3 0  9992,2 52302  53.2191  35.4696 0001704 114.6651 245.4518 15.08841129 84486,6917.877,95.437,540.921,538.563,0.0
52302.0,STARLINK-3564,PAYLOAD,2023-10-21 14:01:13,15.08842185,0.0001801,53.2206,35.1827,116.6617,243.456,0.00010807,1.432e-05,0.0,0 STARLINK-3564,1 52302U 22041AT  23294.58417927  .00001432  00000-0  10807-3 0  9993,2 52302  53.2206  35.1827 0001801 116.6617 243.4560 15.08842185 83283,6917.874,95.437,540.985,538.493,0.0
52302.0,STARLINK-3564,PAYLOAD,2023-10-22 12:16:38,15.08824239,0.0001899,53.222,31.0164,101.4806,258.64,1.1448e-05,-1.06e-06,0.0,0 STARLINK-3564,1 52302U 22041AT  23295.51155772 -.00000106  00000-0  11448-4 0  9995,2 52302  53.2220  31.0164 0001899 101.4806 258.6400 15.08824239 84638,6917.929,95.439,541.107,538.48,0.0
52302.0,STARLINK-3564,PAYLOAD,2023-10-22 13:52:01,15.08832504,0.0001418,53.2197,30.7156,95.4683,264.6471,7.1426e-05,8.49e-06,0.0,0 STARLINK-3564,1 52302U 22041AT  23295.57779050  .00000849  00000-0  71426-4 0  9997,2 52302  53.2197  30.7156 0001418  95.4683 264.6471 15.08832504 83436,6917.903,95.438,540.749,538.787,0.0
52302.0,STARLINK-3564,PAYLOAD,2023-10-23 12:07:25,15.08841504,0.0001646,53.2199,26.5535,100.4433,259.6745,7.9226e-06,-1.62e-06,0.0,0 STARLINK-3564,1 52302U 22041AT  23296.50515180 -.00000162  00000-0  79226-5 0  9999,2 52302  53.2199  26.5535 0001646 100.4433 259.6745 15.08841504 83578,6917.876,95.437,540.879,538.602,0.0
52302.0,STARLINK-3564,PAYLOAD,2023-10-24 11:58:11,15.08845136,0.0001579,53.2197,22.0942,104.1009,256.0159,2.4533e-05,1.02e-06,0.0,0 STARLINK-3564,1 52302U 22041AT  23297.49874986  .00000102  00000-0  24533-4 0  9993,2 52302  53.2197  22.0942 0001579 104.1009 256.0159 15.08845136 84930,6917.865,95.437,540.822,538.637,0.0
52302.0,STARLINK-3564,PAYLOAD,2023-10-25 11:48:58,15.08845615,0.000152,53.219,17.634,95.4931,264.6234,6.1364e-05,6.89e-06,0.0,0 STARLINK-3564,1 52302U 22041AT  23298.49234741  .00000689  00000-0  61364-4 0  9996,2 52302  53.2190  17.6340 0001520  95.4931 264.6234 15.08845615 83870,6917.863,95.437,540.78,538.677,0.0
52302.0,STARLINK-3564,PAYLOAD,2023-10-26 05:18:13,15.08844465,0.0001485,53.2185,14.3629,93.7536,266.3626,3.8045e-05,3.18e-06,0.0,0 STARLINK-3564,1 52302U 22041AT  23299.22098704  .00000318  00000-0  38045-4 0  9994,2 52302  53.2185  14.3629 0001485  93.7536 266.3626 15.08844465 85193,6917.867,95.437,540.759,538.704,0.0
52302.0,STARLINK-3564,PAYLOAD,2023-10-26 11:39:45,15.08847532,0.0001524,53.2186,13.1735,94.0656,266.051,6.0511e-05,6.75e-06,0.0,0 STARLINK-3564,1 52302U 22041AT  23299.48594338  .00000675  00000-0  60511-4 0  9995,2 52302  53.2186  13.1735 0001524  94.0656 266.0510 15.08847532 84028,6917.857,95.437,540.777,538.668,0.0
52302.0,STARLINK-3564,PAYLOAD,2023-10-27 11:30:31,15.08856612,0.0001551,53.2189,8.7128,96.3146,263.8023,0.00011175,1.492e-05,0.0,0 STARLINK-3564,1 52302U 22041AT  23300.47953066  .00001492  00000-0  11175-3 0  9993,2 52302  53.2189   8.7128 0001551  96.3146 263.8023 15.08856612 85389,6917.83,95.437,540.768,538.622,0.0
52302.0,STARLINK-3564,PAYLOAD,2023-10-28 11:21:20,15.08828208,0.0001452,53.2183,4.2494,79.4272,280.6883,-0.00013093,-2.37e-05,0.0,0 STARLINK-3564,1 52302U 22041AT  23301.47315964 -.00002370  00000-0 -13093-3 0  9992,2 52302  53.2183   4.2494 0001452  79.4272 280.6883 15.08828208 85530,6917.916,95.438,540.786,538.777,0.0
52302.0,STARLINK-3564,PAYLOAD,2023-10-28 20:53:39,15.08834381,0.0001601,53.2194,2.4673,79.2223,280.8949,-4.6463e-05,-1.027e-05,0.0,0 STARLINK-3564,1 52302U 22041AT  23301.87059587 -.00001027  00000-0 -46463-4 0  9998,2 52302  53.2194   2.4673 0001601  79.2223 280.8949 15.08834381 85591,6917.898,95.438,540.87,538.655,0.0
52302.0,STARLINK-3564,PAYLOAD,2023-10-29 12:47:29,15.08857134,0.0001516,53.2194,359.4961,77.9477,282.1685,0.0001116,1.489e-05,0.0,0 STARLINK-3564,1 52302U 22041AT  23302.53297664  .00001489  00000-0  11160-3 0  9997,2 52302  53.2194 359.4961 0001516  77.9477 282.1685 15.08857134 85691,6917.828,95.436,540.742,538.644,0.0
52302.0,STARLINK-3564,PAYLOAD,2023-10-29 20:44:25,15.08841808,0.0001465,53.2186,358.0073,83.3405,276.7754,-4.6191e-05,-1.023e-05,0.0,0 STARLINK-3564,1 52302U 22041AT  23302.86418747 -.00001023  00000-0 -46191-4 0  9999,2 52302  53.2186 358.0073 0001465  83.3405 276.7754 15.08841808 85749,6917.875,95.437,540.753,538.726,0.0
52302.0,STARLINK-3564,PAYLOAD,2023-10-30 03:05:59,15.08827253,0.0001985,53.219,356.8186,78.0297,282.0918,0.00012432,1.69e-05,0.0,0 STARLINK-3564,1 52302U 22041AT  23303.12915971  .00001690  00000-0  12432-3 0  9998,2 52302  53.2190 356.8186 0001985  78.0297 282.0918 15.08827253 85786,6917.919,95.438,541.158,538.411,0.0
52302.0,STARLINK-3564,PAYLOAD,2023-10-30 20:35:14,15.08826828,0.0001953,53.2195,353.5484,81.8391,278.2823,0.00011106,1.479e-05,0.0,0 STARLINK-3564,1 52302U 22041AT  23303.85780643  .00001479  00000-0  11106-3 0  9996,2 52302  53.2195 353.5484 0001953  81.8391 278.2823 15.08826828 84685,6917.921,95.438,541.137,538.435,0.0
52302.0,STARLINK-3564,PAYLOAD,2023-10-31 09:18:19,15.08842245,0.0001737,53.2183,351.1691,83.3062,276.8128,-9.2257e-05,-1.756e-05,0.0,0 STARLINK-3564,1 52302U 22041AT  23304.38772359 -.00001756  00000-0 -92257-4 0  9997,2 52302  53.2183 351.1691 0001737  83.3062 276.8128 15.08842245 85974,6917.874,95.437,540.94,538.537,0.0
52302.0,STARLINK-3564,PAYLOAD,2023-10-31 20:26:00,15.08846566,0.0001739,53.2184,349.0872,80.4271,279.6917,-6.6471e-05,-1.346e-05,0.0,0 STARLINK-3564,1 52302U 22041AT  23304.85139905 -.00001346  00000-0 -66471-4 0  9997,2 52302  53.2184 349.0872 0001739  80.4271 279.6917 15.08846566 84835,6917.86,95.437,540.928,538.522,0.0
52302.0,STARLINK-3564,PAYLOAD,2023-11-01 09:09:06,15.08838069,0.0001619,53.2173,346.7079,86.7221,273.3957,0.00014097,1.956e-05,0.0,0 STARLINK-3564,1 52302U 22041AT  23305.38132177  .00001956  00000-0  14097-3 0  9991,2 52302  53.2173 346.7079 0001619  86.7221 273.3957 15.08838069 84910,6917.886,95.438,540.871,538.631,0.0
52302.0,STARLINK-3564,PAYLOAD,2023-11-01 20:16:47,15.08843615,0.0001588,53.2176,344.6266,85.1565,274.9608,0.00010308,1.353e-05,0.0,0 STARLINK-3564,1 52302U 22041AT  23305.84499893  .00001353  00000-0  10308-3 0  9995,2 52302  53.2176 344.6266 0001588  85.1565 274.9608 15.08843615 86192,6917.869,95.437,540.833,538.636,0.0
52302.0,STARLINK-3564,PAYLOAD,2023-11-02 12:10:38,15.0885043,0.0001765,53.2179,341.6508,106.3819,253.7368,0.00015479,2.177e-05,0.0,0 STARLINK-3564,1 52302U 22041AT  23306.50739329  .00002177  00000-0  15479-3 0  9999,2 52302  53.2179 341.6508 0001765 106.3819 253.7368 15.08850430 85084,6917.849,95.437,540.935,538.493,0.0
52302.0,STARLINK-3564,PAYLOAD,2023-11-02 20:07:35,15.0883863,0.0002055,53.2182,340.1659,84.0352,276.0874,4.8616e-05,4.86e-06,0.0,0 STARLINK-3564,1 52302U 22041AT  23306.83860514  .00000486  00000-0  48616-4 0  9997,2 52302  53.2182 340.1659 0002055  84.0352 276.0874 15.08838630 86344,6917.885,95.438,541.171,538.328,0.0
52302.0,STARLINK-3564,PAYLOAD,2023-11-03 08:50:40,15.08845058,0.0001727,53.2178,337.7862,93.01,267.109,7.1324e-05,8.47e-06,0.0,0 STARLINK-3564,1 52302U 22041AT  23307.36851948  .00000847  00000-0  71324-4 0  9990,2 52302  53.2178 337.7862 0001727  93.0100 267.1090 15.08845058 85211,6917.865,95.437,540.925,538.535,0.0
52302.0,STARLINK-3564,PAYLOAD,2023-11-04 02:19:54,15.08842,0.0001706,53.2181,334.5153,92.3056,267.8132,4.5737e-05,4.4e-06,0.0,0 STARLINK-3564,1 52302U 22041AT  23308.09716104  .00000440  00000-0  45737-4 0  9993,2 52302  53.2181 334.5153 0001706  92.3056 267.8132 15.08842000 86536,6917.874,95.437,540.919,538.559,0.0
52302.0,STARLINK-3564,PAYLOAD,2023-11-04 08:41:26,15.08851107,0.000174,53.2178,333.3244,95.1267,264.9924,0.00010913,1.45e-05,0.0,0 STARLINK-3564,1 52302U 22041AT  23308.36211356  .00001450  00000-0  10913-3 0  9991,2 52302  53.2178 333.3244 0001740  95.1267 264.9924 15.08851107 86572,6917.846,95.437,540.915,538.508,0.0
52302.0,STARLINK-3564,PAYLOAD,2023-11-04 18:13:46,15.08840147,0.0001781,53.2169,331.5398,90.3686,269.751,8.0353e-05,9.91e-06,0.0,0 STARLINK-3564,1 52302U 22041AT  23308.75956020  .00000991  00000-0  80353-4 0  9993,2 52302  53.2169 331.5398 0001781  90.3686 269.7510 15.08840147 86632,6917.88,95.438,540.977,538.513,0.0
52302.0,STARLINK-3564,PAYLOAD,2023-11-05 08:32:13,15.08846967,0.0001879,53.2183,328.8694,96.7459,263.3747,0.00016048,2.267e-05,0.0,0 STARLINK-3564,1 52302U 22041AT  23309.35571679  .00002267  00000-0  16048-3 0  9990,2 52302  53.2183 328.8694 0001879  96.7459 263.3747 15.08846967 85516,6917.859,95.437,541.024,538.424,0.0
